#aP1999  9 18  0  0  0.00000000      96 ORBIT ITR97 HLM  IGS
## 1027 518400.00000000   900.00000000 51439 0.0000000000000
+   27     1  2  3  4  5  6  7  8  9 10 13 14 15 16 17 18 19
+         21 22 23 24 25 26 27 29 30 31  0  0  0  0  0  0  0
+          0  0  0  0  0  0  0  0  0  0  0  0  0  0  0  0  0
+          0  0  0  0  0  0  0  0  0  0  0  0  0  0  0  0  0
+          0  0  0  0  0  0  0  0  0  0  0  0  0  0  0  0  0
++         4  4  4  5  4  4  4  4  4  4  5  4  0  4  5  4  5
++         4  4  4  5  5  4  5  4  4  4  0  0  0  0  0  0  0
++         0  0  0  0  0  0  0  0  0  0  0  0  0  0  0  0  0
++         0  0  0  0  0  0  0  0  0  0  0  0  0  0  0  0  0
++         0  0  0  0  0  0  0  0  0  0  0  0  0  0  0  0  0
%c cc cc ccc ccc cccc cccc cccc cccc ccccc ccccc ccccc ccccc
%c cc cc ccc ccc cccc cccc cccc cccc ccccc ccccc ccccc ccccc
%f  0.0000000  0.000000000  0.00000000000  0.000000000000000
%f  0.0000000  0.000000000  0.00000000000  0.000000000000000
%i    0    0    0    0      0      0      0      0         0
%i    0    0    0    0      0      0      0      0         0
/* FINAL ORBIT COMBINATION FROM WEIGHTED AVERAGE OF:
/* cod emr esa gfz jpl ngs sio                              
/* REFERENCED TO GPS CLOCK AND TO WEIGHTED MEAN POLE:       
/* CLK ANT Z-OFFSET (M): II/IIA 1.023; IIR 0.000            
*  1999  9 18 20  0  0.0000
P  1 -22072.074025  -9801.366084  11265.405383     98.757693
P  2  -9796.937763  24014.007899   4738.728467   -112.445818
P  3 -15243.918400 -13109.657288 -17380.879253     42.649722
P  4   4201.350949  24283.444900   9751.219936    235.189652
P  5  17821.800730  -1769.522530  19588.612849    217.148787
P  6  23573.788260  -5983.606565 -10826.827676      0.106154
P  7  -6212.225956  14901.367086  21348.222349    550.455433
P  8  14657.191843  -4228.605442  21443.552743    259.741855
P  9  18483.330746  10531.789118  15990.267164    -10.655525
P 10   7643.487150  14377.523283 -20942.949220     40.954613
P 13   -502.261986  15150.667193 -21763.751874   -171.627944
P 14 -18709.929479   4786.189653  18221.267941     33.553007
P 15 -16921.649044 -11662.260336  16591.538910    727.095273
P 16 -19202.482375  15840.817073   8942.174485    136.518586
P 17   9865.357055 -13085.929525 -20875.275789   -222.269268
P 18 -21536.805264   8962.205463 -13026.268744     26.616881
P 19 -12917.421829   9332.687964 -21170.841525     68.152808
P 21   8278.587202 -23331.478761   8893.147521     30.507374
P 22  -2841.342583 -20000.668512 -17160.222213    151.165049
P 23  17404.382719 -19405.162286  -3908.800197      0.518450
P 24  12633.443312  23228.715015  -2654.753321    575.339725
P 25  -7488.581467 -24530.320252   7557.867854      2.253948
P 26  23673.313153   8261.521753  -9558.544294    669.691087
P 27  -3846.943222  19407.466652 -17290.310297     32.182424
P 29   7312.995837 -14585.607525  21142.203732    515.123454
P 30  19081.473757 -14248.301151  11575.934539    -32.354201
P 31 -25010.201934  -6234.454033  -7233.301931     25.649817
*  1999  9 18 20 15  0.0000
P  1 -20663.288636  -9937.559047  13603.052352     98.762563
P  2 -10272.450789  24137.190490   1939.050336   -112.483858
P  3 -13168.554726 -13269.230911 -18893.626076     42.603806
P  4   3462.138298  23258.270197  12261.605504    235.120012
P  5  16797.910858    300.110432  20554.719082    217.194116
P  6  24670.144274  -5700.308465  -8296.494522      0.070536
P  7  -8555.424189  14795.019530  20562.022704    550.242629
P  8  15738.002539  -1981.894312  20996.358884    259.813565
P  9  19154.919585  12137.611133  13988.541647    -10.757309
P 10   6345.743592  16326.314337 -19908.288795     40.899637
P 13  -2992.595112  15065.908330 -21616.073044   -171.641347
P 14 -17575.346654   2935.577516  19680.507904     33.615548
P 15 -17555.855363 -13370.173558  14548.579249    727.098777
P 16 -18704.831560  14751.113234  11499.732539    136.482858
P 17  10859.401378 -10880.310971 -21682.463161   -222.254756
P 18 -22861.609165   8749.520043 -10662.409347     26.684274
P 19 -14234.636974   7268.917052 -21155.959727     68.098502
P 21   8942.860759 -23915.904421   6156.192030     30.643628
P 22  -1738.070040 -21508.854277 -15320.162215    150.997202
P 23  17228.134056 -18727.323585  -6719.292167      0.327982
P 24  12553.579187  23455.763283    244.527674    575.221673
P 25  -6742.584466 -23833.093399  10103.511194      2.423183
P 26  22450.411036   8403.431669 -12014.507476    669.714558
P 27  -5083.496254  17680.503801 -18804.907026     32.235620
P 29   9641.329783 -14486.078133  20237.737441    515.479747
P 30  18532.952141 -12848.470024  13849.918399    -32.483196
P 31 -24063.572386  -6454.425178  -9828.963398     25.683504
*  1999  9 18 20 30  0.0000
P  1 -19014.126546 -10148.172434  15709.221143     98.810891
P  2 -10611.485041  23989.548294   -894.928034   -112.664350
P  3 -10951.721450 -13539.863527 -20081.949516     42.488433
P  4   2530.451491  22040.353105  14560.009100    235.182996
P  5  15836.832377   2496.322064  21166.622576    217.062126
P  6  25485.316682  -5469.855075  -5624.704257      0.012615
P  7 -10797.321259  14803.806198  19428.985142    550.358204
P  8  16895.147875    144.311617  20177.704823    259.737187
P  9  19777.272962  13503.461821  11748.318796    -10.808377
P 10   5218.128390  18222.090150 -18529.395070     41.015873
P 13  -5446.658243  15110.132757 -21094.672071   -171.547579
P 14 -16468.624052    899.650335  20800.656001     33.729473
P 15 -18166.210329 -14820.081239  12251.571668    727.101725
P 16 -18122.026268  13396.550573  13856.948157    136.621403
P 17  12003.406464  -8674.936151 -22117.361894   -222.220704
P 18 -23921.893105   8582.826093  -8117.917716     26.711885
P 19 -15632.378912   5288.967632 -20775.183189     68.031198
P 21   9425.696930 -24252.453092   3309.710045     30.514487
P 22   -800.552228 -22869.042102 -13213.613004    151.225889
P 23  16928.533723 -17767.135980  -9410.897855      0.470167
P 24  12323.842697  23401.899359   3139.648888    575.501073
P 25  -5807.778793 -22946.839424  12478.937817      2.295094
P 26  20971.563107   8618.311549 -14269.481360    669.652625
P 27  -6483.040924  15889.364247 -19986.526758     32.228036
P 29  11852.970825 -14501.305872  18990.089094    515.351066
P 30  17941.361756 -11205.201858  15882.952949    -32.420776
P 31 -22848.987332  -6735.736032 -12259.641177     25.665826
*  1999  9 18 20 45  0.0000
P  1 -17157.521043 -10460.155759  17548.378417     98.838398
P  2 -10844.963106  23554.399902  -3712.892945   -112.469246
P  3  -8637.443899 -13933.825479 -20925.528335     42.588039
P  4   1395.955869  20672.254887  16607.179838    235.185268
P  5  14965.307037   4780.683820  21414.021599    217.300861
P  6  26005.243102  -5257.521771  -2857.229817      0.267599
P  7 -12895.046249  14910.603177  17967.072488    550.412501
P  8  18094.970724   2113.680197  19002.177351    259.752671
P  9  20311.517621  14621.691581   9308.453009    -10.722949
P 10   4265.099526  20017.154237 -16829.728387     40.797181
P 13  -7816.097316  15274.690848 -20208.384203   -171.847456
P 14 -15426.244569  -1289.173276  21562.316388     33.619472
P 15 -18710.670222 -15999.378974   9741.122680    727.105220
P 16 -17496.052852  11786.593622  15972.858387    136.557307
P 17  13280.368026  -6517.481220 -22174.168041   -222.440643
P 18 -24699.507606   8427.939735  -5435.591996     26.727979
P 19 -17079.696103   3427.334563 -20035.790419     67.986008
P 21   9754.337408 -24312.758158    404.116012     30.519424
P 22    -18.883045 -24040.427094 -10876.166800    151.071944
P 23  16545.646340 -16522.634779 -11935.347451      0.459680
P 24  11912.518192  23090.918410   5981.206205    575.285171
P 25  -4673.596132 -21908.586827  14644.329069      2.547511
P 26  19265.725648   8934.842775 -16285.112334    669.707047
P 27  -8032.688418  14079.831433 -20815.698900     32.310974
P 29  13905.620481 -14612.472553  17419.755875    515.211175
P 30  17344.843281  -9336.627613  17639.296370    -32.484896
P 31 -21392.028857  -7108.510797 -14484.718101     25.606848
*  1999  9 18 21  0  0.0000
P  1 -15132.063385 -10894.443566  19089.547980     98.876740
P  2 -11006.919897  22823.538623  -6464.206750   -112.448591
P  3  -6272.094640 -14455.848195 -21409.951163     42.550944
P  4     56.651225  19199.223885  18368.358713    235.215578
P  5  14203.571752   7110.590585  21292.902413    217.257632
P  6  26224.249367  -5027.020489    -41.246850      0.095927
P  7 -14809.917675  15091.603233  16199.876167    550.378821
P  8  19299.082702   3896.755781  17490.823868    259.898499
P  9  20719.426022  15492.948607   6710.891040    -10.781445
P 10   3482.702138  21665.048045 -14838.394769     40.914881
P 13 -10055.274530  15543.209219 -18972.396947   -171.818558
P 14 -14479.188252  -3592.041201  21952.269678     33.667833
P 15 -19147.120069 -16904.711812   7061.394295    727.108356
P 16 -16867.695783   9939.521943  17810.793295    136.724529
P 17  14665.701930  -4451.929519 -21853.521288   -222.329162
P 18 -25184.351570   8248.649670  -2660.751442     26.900671
P 19 -18540.963262   1712.475390 -18951.227031     68.113793
P 21   9961.380870 -24076.393991  -2508.698985     30.752251
P 22    623.853584 -24986.356422  -8347.850330    151.263411
P 23  16120.500798 -15001.330217 -14247.085502      0.341967
P 24  11293.732867  22553.608544   8721.016882    575.365230
P 25  -3336.947870 -20758.001024  16563.385229      2.363424
P 26  17368.090625   9376.130669 -18026.751264    669.666476
P 27  -9711.936136  12295.575095 -21279.456984     32.222284
P 29  15761.701607 -14794.229689  15552.749162    515.346088
P 30  16778.790766  -7268.788884  19088.001651    -32.321290
P 31 -19724.742550  -7597.902024 -16466.991262     25.505464
EOF
